{"type":"FeatureCollection","features":[{"type":"Feature","properties":{},"geometry":{"type":"LineString","coordinates":[[-84.32469,34.988096],[-84.286974,35.200846],[-84.261101,35.249581],[-84.232471,35.260589],[-84.128584,35.261413],[-84.062281,35.286012],[-84.003735,35.414069],[-83.871306,35.51489],[-83.811705,35.54029],[-83.722716,35.559901],[-83.511119,35.584082],[-83.284241,35.682058],[-83.120369,35.774618],[-82.990203,35.800447],[-82.949476,35.834526],[-82.920253,35.8789],[-82.901862,35.939171],[-82.887722,35.951728],[-82.812817,35.947444],[-82.75559,35.999871],[-82.700087,36.029841],[-82.611097,36.047364],[-82.598101,36.031599],[-82.588751,35.986951],[-82.576842,35.972273],[-82.553408,35.970987],[-82.478426,36.010055],[-82.368245,36.099549],[-82.294944,36.13397],[-82.182499,36.153789],[-82.100618,36.106526],[-82.051366,36.122862],[-81.908247,36.306411],[-81.851151,36.3397],[-81.80826,36.352718],[-81.734125,36.355454],[-81.733323,36.405914],[-81.707648,36.481962],[-81.704418,36.533993],[-81.65889,36.610579]]}},{"type":"Feature","properties":{},"geometry":{"type":"LineString","coordinates":[[-74.699051,41.357299],[-74.812485,41.30151],[-74.912296,41.155271],[-75.031541,41.05178],[-75.123036,40.999002],[-75.12275,40.971766],[-75.074926,40.884458],[-75.075564,40.856267],[-75.111797,40.802105],[-75.174737,40.775518],[-75.192282,40.689868],[-75.189019,40.595814],[-75.170518,40.576797],[-75.097448,40.543135],[-75.034046,40.420374],[-74.976379,40.405828],[-74.734889,40.154504],[-74.909297,40.079545],[-75.074168,39.98348]]}},{"type":"Feature","properties":{},"geometry":{"type":"LineString","coordinates":[[-71.51752,45.007561],[-71.533483,44.987973],[-71.510225,44.908344],[-71.62066,44.771894],[-71.618287,44.727761],[-71.568442,44.607637],[-71.571496,44.579193],[-71.5878,44.565263],[-71.609289,44.514055],[-71.683007,44.45028],[-71.825511,44.37409],[-71.867677,44.354918],[-72.001776,44.329496],[-72.031208,44.300734],[-72.062233,44.11635],[-72.106212,44.013079],[-72.114924,43.965431],[-72.173855,43.884088],[-72.222381,43.790869],[-72.296693,43.714954],[-72.362369,43.586645],[-72.384957,43.52923],[-72.407072,43.332036],[-72.438186,43.224645],[-72.473715,43.038537],[-72.519419,42.966675],[-72.549807,42.886684],[-72.552806,42.856449],[-72.539622,42.829632],[-72.483658,42.766174],[-72.46686,42.730315]]}},{"type":"Feature","properties":{},"geometry":{"type":"LineString","coordinates":[[-82.589037,38.419774],[-82.589498,38.420334],[-82.599529,38.432332]]}},{"type":"Feature","properties":{},"geometry":{"type":"LineString","coordinates":[[-82.612778,38.448218],[-82.589498,38.420345]]}},{"type":"Feature","properties":{},"geometry":{"type":"LineString","coordinates":[[-81.965277,37.539725],[-82.103463,37.570575],[-82.280244,37.687184],[-82.393876,37.828314],[-82.4299,37.894177],[-82.47189,37.938408],[-82.482195,37.983551],[-82.588773,38.099742],[-82.617711,38.149873],[-82.619546,38.182008],[-82.578413,38.272085],[-82.589498,38.420345]]}},{"type":"Feature","properties":{},"geometry":{"type":"LineString","coordinates":[[-81.965277,37.539725],[-82.343207,37.296927],[-82.516505,37.208839],[-82.681586,37.13812],[-82.731892,37.048076],[-82.832021,36.979269],[-82.894501,36.906374],[-83.043816,36.845554],[-83.150218,36.762333],[-83.41689,36.681012],[-83.566183,36.652623],[-83.667521,36.60503]]}},{"type":"Feature","properties":{},"geometry":{"type":"LineString","coordinates":[[-89.735314,31.001157],[-89.764933,30.886075],[-89.835366,30.730816],[-89.838124,30.690431],[-89.819733,30.639861],[-89.819997,30.611208],[-89.794003,30.568933],[-89.736632,30.526613],[-89.685766,30.462684],[-89.628988,30.296186],[-89.591657,30.223017],[-89.520861,30.192629]]}},{"type":"Feature","properties":{},"geometry":{"type":"LineString","coordinates":[[-96.556401,45.942773],[-96.57048,46.019237],[-96.560845,46.138241],[-96.598567,46.271857],[-96.61743,46.327096],[-96.730859,46.472775],[-96.758198,46.59034],[-96.786647,46.648216],[-96.795997,46.797091],[-96.770135,46.919666],[-96.818299,46.974136],[-96.825325,47.018861],[-96.847517,47.373335],[-96.862947,47.423927],[-96.858707,47.588338],[-96.94635,47.761526],[-96.988005,47.820336],[-97.009032,47.891549],[-97.007434,47.925607],[-97.078516,48.04337],[-97.125927,48.173393],[-97.121609,48.286047],[-97.136803,48.371213],[-97.131019,48.437427],[-97.143961,48.536755],[-97.12913,48.593367],[-97.128047,48.681115],[-97.226023,48.994093]]}},{"type":"Feature","properties":{},"geometry":{"type":"LineString","coordinates":[[-94.047327,33.554435],[-94.098798,33.57733],[-94.191534,33.589009],[-94.238456,33.581208],[-94.294679,33.58746],[-94.357674,33.560972],[-94.377955,33.566113],[-94.390122,33.585603],[-94.432008,33.599731],[-94.484149,33.648434]]}},{"type":"Feature","properties":{},"geometry":{"type":"LineString","coordinates":[[-75.421029,39.815422],[-75.510446,39.843438],[-75.634581,39.839482],[-75.676823,39.827233],[-75.709145,39.802898],[-75.78472,39.722357]]}},{"type":"Feature","properties":{},"geometry":{"type":"LineString","coordinates":[[-81.087316,35.155714],[-81.05662,35.145508],[-81.046853,35.131083],[-81.045249,35.065615]]}},{"type":"Feature","properties":{},"geometry":{"type":"LineString","coordinates":[[-82.777529,35.086643],[-82.743966,35.084061],[-82.651483,35.128039],[-82.463957,35.177961],[-82.392535,35.210931],[-82.356083,35.201626]]}},{"type":"Feature","properties":{},"geometry":{"type":"LineString","coordinates":[[-120,60.001087],[-120.001018,53.843788],[-119.972695,53.797053],[-119.91717,53.769894],[-119.904431,53.723005],[-119.884639,53.707932],[-119.811569,53.698791],[-119.73483,53.633653],[-119.743125,53.61502],[-119.91823,53.61223],[-119.920812,53.602287],[-119.896115,53.566702],[-119.89384,53.51555],[-119.819606,53.490995],[-119.723256,53.399787],[-119.680107,53.37064],[-119.64773,53.363049],[-119.592387,53.372453],[-119.399763,53.352502],[-119.308786,53.241891],[-119.261061,53.209493],[-119.022108,53.139444],[-119.016115,53.204373],[-118.99255,53.235585],[-118.914365,53.21169],[-118.803673,53.153397],[-118.77357,53.121569],[-118.766363,53.065418],[-118.731481,53.057848],[-118.678357,53.025911],[-118.668178,52.971672],[-118.630709,52.909434],[-118.605496,52.895119],[-118.501856,52.888373],[-118.476923,52.878508],[-118.428424,52.83554],[-118.412894,52.784223],[-118.330211,52.708824],[-118.319335,52.674459],[-118.350261,52.62346],[-118.288436,52.562266],[-118.266315,52.518288],[-118.225028,52.482692],[-118.246677,52.440757],[-118.242804,52.408864],[-118.221024,52.3861],[-118.191256,52.384145],[-118.060101,52.41272],[-118.044287,52.42742],[-118.028604,52.465894],[-118.001989,52.485889],[-117.883057,52.430156],[-117.757615,52.394637],[-117.731698,52.383156],[-117.734642,52.35257],[-117.821819,52.272161],[-117.787767,52.232523],[-117.750638,52.207715],[-117.587316,52.141731],[-117.384948,52.144412],[-117.347589,52.15909],[-117.320145,52.155959],[-117.24457,52.047106],[-117.076984,51.926388],[-117.03706,51.885904],[-116.938721,51.735754],[-116.912783,51.713847],[-116.829918,51.715242],[-116.814697,51.721856],[-116.808237,51.752607],[-116.790774,51.770954],[-116.758189,51.788543],[-116.717704,51.799936],[-116.674033,51.790685],[-116.633856,51.758473],[-116.56735,51.650698],[-116.501746,51.614783],[-116.410795,51.543724],[-116.3771,51.497273],[-116.309952,51.447769],[-116.278762,51.347826],[-116.250313,51.322657],[-116.176342,51.297004],[-116.134923,51.26622],[-116.04188,51.229998],[-116.013535,51.150699],[-115.997643,51.129539],[-115.940438,51.102051],[-115.793781,51.070422],[-115.618934,50.962316],[-115.596192,50.936268],[-115.588002,50.909197],[-115.639885,50.869174],[-115.633892,50.855243],[-115.433105,50.756388],[-115.398713,50.731373],[-115.346522,50.728945],[-115.298358,50.673497],[-115.310965,50.642131],[-115.305439,50.634561],[-115.26663,50.59423],[-115.205958,50.553658],[-115.127669,50.584947],[-115.091189,50.584815],[-115.047881,50.577048],[-114.992795,50.545033],[-114.789136,50.359145],[-114.716379,50.129344],[-114.667748,50.060976],[-114.651961,50.019612],[-114.651395,49.985324],[-114.684931,49.93427],[-114.637596,49.796755],[-114.642842,49.730298],[-114.686041,49.643067],[-114.73733,49.603846],[-114.734023,49.587201],[-114.716714,49.568503],[-114.680899,49.55555],[-114.577474,49.543619],[-114.588015,49.420319],[-114.565224,49.393886],[-114.479646,49.333428],[-114.425906,49.27441],[-114.386163,49.25203],[-114.354847,49.210689],[-114.189794,49.168062],[-114.163674,49.14677],[-114.132538,49.094058],[-114.057474,49.037962],[-114.050602,49.014627],[-114.062517,48.993083]]}},{"type":"Feature","properties":{},"geometry":{"type":"LineString","coordinates":[[-123.819157,60.001087],[-123.879488,60.039715],[-124.010824,60.046131],[-124.01312,60.060106],[-123.992296,60.099173],[-123.997361,60.126562],[-124.103274,60.225285],[-124.184688,60.320965],[-124.20453,60.352902],[-124.225486,60.452768],[-124.249337,60.473466],[-124.402838,60.494088],[-124.469218,60.567158],[-124.599444,60.662135],[-124.611227,60.701202],[-124.505028,60.788488],[-124.506478,60.822282],[-124.582597,60.952822],[-124.615748,60.960392],[-124.806509,60.961062],[-124.837282,60.948197],[-124.859557,60.924137],[-124.880486,60.860317],[-125.151634,60.844354],[-125.322499,60.792389],[-125.378699,60.791663],[-125.706949,60.840476],[-125.863756,60.88998],[-125.89916,60.890233],[-125.957085,60.865096],[-126.003184,60.808791],[-126.064213,60.816009],[-126.098578,60.828896],[-126.114596,60.86336],[-126.161519,60.865876],[-126.222757,60.855846],[-126.234589,60.843552],[-126.234666,60.808945],[-126.255051,60.793806],[-126.296887,60.784511],[-126.3505,60.780523],[-126.520074,60.800321],[-126.66516,60.762341],[-126.767398,60.77492],[-126.83241,60.764099],[-126.859277,60.769416],[-126.889665,60.795619],[-126.888138,60.833137],[-126.9116,60.859592],[-126.918059,60.884245],[-126.908501,60.950108],[-126.944212,61.052446],[-126.963746,61.063454],[-127.054592,61.051237],[-127.092907,61.070507],[-127.096472,61.081439],[-127.082135,61.093689],[-127.026764,61.126472],[-127.0148,61.197784],[-127.02126,61.236753],[-127.072522,61.369643],[-127.116061,61.404085],[-127.166598,61.464521],[-127.22928,61.494437],[-127.299357,61.512158],[-127.468052,61.51051],[-127.608666,61.532856],[-127.713025,61.588183],[-127.807233,61.618747],[-127.993577,61.711219],[-128.019417,61.779642],[-128.04657,61.813381],[-128.093827,61.841264],[-128.206327,61.865269],[-128.23209,61.883584],[-128.25837,61.927749],[-128.366217,61.990898],[-128.400066,62.033734],[-128.560829,62.116911],[-128.615837,62.122097],[-128.67852,62.112286],[-128.775518,62.068923],[-128.81386,62.063814],[-128.840914,62.072955],[-128.879751,62.11099],[-128.90737,62.118999],[-129.013773,62.131655],[-129.136221,62.125514],[-129.208879,62.135742],[-129.254714,62.152771],[-129.26898,62.166306],[-129.232829,62.21982],[-129.29337,62.294231],[-129.291019,62.32229],[-129.239289,62.373244],[-129.249133,62.388548],[-129.293628,62.411224],[-129.296314,62.425287],[-129.28714,62.441151],[-129.199552,62.470034],[-129.18945,62.490293],[-129.211126,62.513441],[-129.490256,62.598717],[-129.525346,62.673534],[-129.54405,62.688036],[-129.620015,62.712249],[-129.658308,62.776476],[-129.718667,62.831671],[-129.728923,62.864872],[-129.714404,62.894787],[-129.713937,62.930603],[-129.617483,63.037291],[-129.611775,63.058681],[-129.629782,63.068272],[-129.734427,63.070129],[-129.827497,63.091761],[-129.870339,63.156899],[-129.905682,63.187408],[-130.059732,63.261203],[-130.133604,63.276452],[-130.139778,63.293349],[-130.101667,63.318794],[-129.948342,63.375692],[-129.905319,63.405772],[-129.844938,63.485786],[-129.855068,63.5217],[-129.887801,63.554824],[-129.945524,63.586355],[-129.975989,63.615655],[-130.063039,63.635628],[-130.110681,63.695031],[-130.14169,63.697613],[-130.243572,63.678332],[-130.28499,63.685935],[-130.302607,63.703711],[-130.298448,63.721025],[-130.25959,63.737406],[-130.12081,63.773133],[-130.117916,63.79337],[-130.139597,63.807839],[-130.282557,63.822561],[-130.363614,63.850213],[-130.51288,63.92013],[-130.660574,63.950519],[-130.757726,63.993047],[-130.791855,64.03051],[-130.846661,64.048802],[-130.871979,64.080608],[-130.929701,64.125465],[-130.94128,64.140505],[-130.913013,64.167608],[-130.91332,64.192514],[-130.930838,64.219233],[-131.012076,64.272824],[-131.026133,64.298093],[-131.021766,64.324416],[-131.106718,64.400903],[-131.265081,64.447046],[-131.358772,64.458471],[-131.399262,64.451385],[-131.449618,64.415965],[-131.512795,64.393432],[-131.585914,64.38026],[-131.763734,64.380512],[-131.796808,64.387906],[-131.802779,64.406561],[-131.715987,64.515029],[-131.729006,64.533816],[-131.893207,64.577201],[-132.052169,64.684197],[-132.106271,64.702148],[-132.32068,64.762716],[-132.401732,64.777438],[-132.553689,64.780228],[-132.588104,64.794082],[-132.601128,64.825909],[-132.5048,64.883741],[-132.497,64.957481],[-132.353826,65.038506],[-132.35259,65.057248],[-132.38127,65.075068],[-132.516066,65.094162],[-132.538314,65.109148],[-132.540148,65.170056],[-132.579446,65.18458],[-132.708096,65.167156],[-132.751816,65.173176],[-132.768093,65.184756],[-132.773234,65.20341],[-132.762484,65.22501],[-132.596887,65.280249],[-132.566422,65.300255],[-132.541697,65.340816],[-132.345872,65.443418],[-132.267759,65.537702],[-132.194689,65.597655],[-132.196188,65.62767],[-132.295252,65.716142],[-132.377754,65.766658],[-132.533172,65.833894],[-132.554848,65.857009],[-132.538984,65.886057],[-132.340752,65.955249],[-132.342746,65.978968],[-132.370909,65.993569],[-132.483404,65.989021],[-132.614328,66.029231],[-132.71365,65.997755],[-132.766181,65.971223],[-132.821321,65.927992],[-132.902505,65.913545],[-132.948027,65.916753],[-132.967797,65.933705],[-132.916458,66.001655],[-132.917902,66.017552],[-132.93798,66.02866],[-133.04146,66.02755],[-133.229096,66.006149],[-133.412133,65.956029],[-133.588947,65.962588],[-133.621632,65.974629],[-133.623801,66.010334],[-133.645351,66.049358],[-133.675739,66.073956],[-133.677184,66.095632],[-133.593776,66.149861],[-133.568716,66.176634],[-133.571248,66.248749],[-133.583157,66.285102],[-133.651141,66.300264],[-133.790173,66.304449],[-133.800121,66.325587],[-133.759554,66.415994],[-133.739378,66.439845],[-133.65403,66.452842],[-133.658375,66.509278],[-133.635194,66.565649],[-133.651762,66.586062],[-133.763921,66.650969],[-133.770743,66.684357],[-133.799039,66.711119],[-133.805856,66.733422],[-133.782735,66.785486],[-133.794155,66.818631],[-133.84751,66.861709],[-133.92386,66.902974],[-134.031323,66.944029],[-134.053389,66.972704],[-134.055581,67.004487],[-136.126053,67.004696],[-136.169306,67.015243],[-136.194553,67.036216],[-136.223227,67.08828],[-136.217987,67.181224],[-136.150157,67.226334],[-136.107761,67.287572],[-136.105179,67.304216],[-136.140907,67.375265],[-136.177623,67.422627],[-136.169251,67.514231],[-136.207934,67.576908],[-136.233307,67.600265],[-136.400711,67.665897],[-136.434406,67.702537],[-136.445437,67.746592],[-136.443756,68.895124]]}},{"type":"Feature","properties":{},"geometry":{"type":"LineString","coordinates":[[-68.37921,47.588986],[-68.429637,47.528188],[-68.496016,47.480309],[-68.628467,47.420697],[-69.05366,47.294585]]}},{"type":"Feature","properties":{},"geometry":{"type":"LineString","coordinates":[[-67.612891,47.998567],[-67.609463,47.968827],[-67.579042,47.939505],[-67.364853,47.8548],[-67.307054,47.887232],[-67.187237,47.894076],[-67.057576,47.918576],[-66.951822,47.899449],[-66.925026,47.96351],[-66.842684,47.997897],[-66.704377,48.022441]]}},{"type":"Feature","properties":{},"geometry":{"type":"LineString","coordinates":[[-120.000809,42.000559],[-124.228409,42.000768]]}},{"type":"Feature","properties":{},"geometry":{"type":"LineString","coordinates":[[-111.051434,44.498883],[-111.11722,44.525349],[-111.160934,44.555836],[-111.197574,44.590586],[-111.265118,44.687552],[-111.304081,44.723312],[-111.337463,44.744812],[-111.372525,44.74624],[-111.41557,44.733551],[-111.4481,44.711117],[-111.459109,44.671017],[-111.491046,44.624226],[-111.488821,44.584544],[-111.474506,44.564615],[-111.499857,44.54485],[-111.659302,44.559605],[-111.797098,44.539895],[-111.89208,44.554925],[-112.074211,44.547619],[-112.23131,44.560692],[-112.285077,44.553947],[-112.320036,44.53315],[-112.375385,44.470022],[-112.715928,44.498037],[-112.787142,44.463079],[-112.810163,44.438162],[-112.815514,44.405972],[-112.831351,44.396623],[-112.853856,44.398325],[-112.910392,44.419331],[-112.999689,44.48036],[-113.006379,44.539137],[-113.05428,44.605187],[-113.062706,44.665073],[-113.09327,44.715336],[-113.140709,44.765489],[-113.18717,44.798579],[-113.234269,44.809873],[-113.338891,44.808072],[-113.460796,44.90362],[-113.469294,44.929976],[-113.438136,44.993971],[-113.447129,45.029084],[-113.503582,45.109284],[-113.557404,45.140419],[-113.606573,45.209105],[-113.697112,45.304983],[-113.721941,45.379273],[-113.756097,45.44084],[-113.76615,45.502517],[-113.799614,45.540189],[-113.802273,45.601098],[-113.872915,45.63354],[-113.942651,45.681507],[-113.991924,45.69302],[-114.006393,45.658457],[-114.116619,45.579103],[-114.210234,45.542442],[-114.256146,45.505648],[-114.297641,45.487565],[-114.350562,45.497145],[-114.448434,45.551253],[-114.529233,45.575719],[-114.537346,45.587398],[-114.532617,45.633024],[-114.495796,45.685846],[-114.533699,45.78201],[-114.522537,45.815133],[-114.492566,45.838732],[-114.405131,45.874251],[-114.396787,45.89095],[-114.415903,45.982159],[-114.478306,46.035585],[-114.463578,46.109765],[-114.485359,46.158214],[-114.446599,46.199325],[-114.444248,46.270714],[-114.38022,46.453033],[-114.387042,46.499955],[-114.345805,46.550591],[-114.332061,46.601392],[-114.336868,46.659224],[-114.380917,46.667639],[-114.518664,46.647743],[-114.562999,46.650435],[-114.60155,46.660334],[-114.624006,46.677615],[-114.630648,46.718572],[-114.661623,46.745544],[-114.678032,46.750169],[-114.753689,46.734568],[-114.786066,46.776756],[-114.886937,46.844871],[-114.935694,46.922819],[-115.033516,46.990934],[-115.126636,47.084593],[-115.306675,47.231172],[-115.349467,47.261176],[-115.485994,47.311636],[-115.593325,47.384915],[-115.713317,47.446746],[-115.676887,47.470564],[-115.66968,47.497854],[-115.710862,47.552599],[-115.690867,47.606652],[-115.718382,47.68148],[-115.733757,47.706342],[-115.811244,47.775951],[-115.862149,47.842408],[-116.04901,48.00472],[-116.048494,48.993083]]}},{"type":"Feature","properties":{},"geometry":{"type":"LineString","coordinates":[[-111.051434,44.498883],[-111.050296,42.000878]]}},{"type":"Feature","properties":{},"geometry":{"type":"LineString","coordinates":[[-111.051434,44.498883],[-111.050862,45.001057],[-104.037212,45.001134]]}},{"type":"Feature","properties":{},"geometry":{"type":"LineString","coordinates":[[-117.016675,42.000559],[-120.000809,42.000559]]}},{"type":"Feature","properties":{},"geometry":{"type":"LineString","coordinates":[[-117.016675,42.000559],[-114.042593,42.001109]]}},{"type":"Feature","properties":{},"geometry":{"type":"LineString","coordinates":[[-111.050296,42.000878],[-114.042593,42.001109]]}},{"type":"Feature","properties":{},"geometry":{"type":"LineString","coordinates":[[-111.050296,42.000878],[-111.049989,41.000858],[-109.04639,41.000858]]}},{"type":"Feature","properties":{},"geometry":{"type":"LineString","coordinates":[[-114.042593,42.001109],[-114.04027,37.004153]]}},{"type":"Feature","properties":{},"geometry":{"type":"LineString","coordinates":[[-114.04027,37.004153],[-109.04667,37.000846]]}},{"type":"Feature","properties":{},"geometry":{"type":"LineString","coordinates":[[-109.04667,37.000846],[-109.047807,31.327879]]}},{"type":"Feature","properties":{},"geometry":{"type":"LineString","coordinates":[[-109.04639,41.000858],[-104.021655,41.000858]]}},{"type":"Feature","properties":{},"geometry":{"type":"LineString","coordinates":[[-109.04639,41.000858],[-109.04667,37.000846]]}},{"type":"Feature","properties":{},"geometry":{"type":"LineString","coordinates":[[-103.000839,37.000846],[-109.04667,37.000846]]}},{"type":"Feature","properties":{},"geometry":{"type":"LineString","coordinates":[[-104.011087,45.943058],[-104.033927,48.993138]]}},{"type":"Feature","properties":{},"geometry":{"type":"LineString","coordinates":[[-104.037212,45.001134],[-104.005478,45.00097],[-104.00478,45.013483],[-104.011087,45.943058]]}},{"type":"Feature","properties":{},"geometry":{"type":"LineString","coordinates":[[-104.028862,43.001403],[-104.037212,45.001134]]}},{"type":"Feature","properties":{},"geometry":{"type":"LineString","coordinates":[[-96.556401,45.942773],[-104.011087,45.943058]]}},{"type":"Feature","properties":{},"geometry":{"type":"LineString","coordinates":[[-104.021655,41.000858],[-104.028862,43.001403]]}},{"type":"Feature","properties":{},"geometry":{"type":"LineString","coordinates":[[-102.024489,40.001124],[-102.025006,41.000628],[-104.021655,41.000858]]}},{"type":"Feature","properties":{},"geometry":{"type":"LineString","coordinates":[[-102.012783,37.000846],[-102.024489,40.001124]]}},{"type":"Feature","properties":{},"geometry":{"type":"LineString","coordinates":[[-95.34668,40.001487],[-102.024489,40.001124]]}},{"type":"Feature","properties":{},"geometry":{"type":"LineString","coordinates":[[-103.000295,36.501232],[-103.000839,37.000846]]}},{"type":"Feature","properties":{},"geometry":{"type":"LineString","coordinates":[[-102.012783,37.000846],[-103.000839,37.000846]]}},{"type":"Feature","properties":{},"geometry":{"type":"LineString","coordinates":[[-94.484149,33.648434],[-94.709198,33.699289],[-94.765734,33.731611],[-94.869374,33.768196],[-94.962389,33.843408],[-95.146075,33.936616],[-95.21586,33.959039],[-95.238031,33.956479],[-95.276016,33.910622],[-95.373888,33.874269],[-95.523494,33.886562],[-95.541836,33.898164],[-95.555712,33.926091],[-95.594471,33.945163],[-95.763166,33.891473],[-95.783914,33.864502],[-95.863082,33.863304],[-95.941579,33.882838],[-96.139344,33.821963],[-96.207272,33.774062],[-96.278562,33.757627],[-96.315048,33.711122],[-96.336752,33.717713],[-96.41114,33.775205],[-96.487204,33.7923],[-96.59159,33.849275],[-96.595364,33.899405],[-96.606345,33.905635],[-96.648538,33.906382],[-96.694016,33.863799],[-96.720213,33.85279],[-96.746283,33.854186],[-96.847572,33.883179],[-96.889996,33.934617],[-96.911001,33.950437],[-96.934051,33.95348],[-96.977694,33.938033],[-97.002161,33.881597],[-97.02159,33.866512],[-97.063838,33.8568],[-97.061229,33.8285],[-97.09895,33.750442],[-97.119,33.734764],[-97.145071,33.737687],[-97.172383,33.75688],[-97.201013,33.808164],[-97.186182,33.870083],[-97.194762,33.890616],[-97.214938,33.897109],[-97.264679,33.867776],[-97.308163,33.869226],[-97.398492,33.831323],[-97.430171,33.838508],[-97.481565,33.885705],[-97.571247,33.91594],[-97.605925,33.971651],[-97.621789,33.987768],[-97.640933,33.991669],[-97.691937,33.972135],[-97.842422,33.875785],[-97.92159,33.878367],[-97.946238,33.897076],[-97.951072,33.971212],[-97.973962,33.993734],[-98.069383,34.040305],[-98.089587,34.084097],[-98.098635,34.145027],[-98.214079,34.135337],[-98.355978,34.141511],[-98.420419,34.088052],[-98.453674,34.078131],[-98.493851,34.088777],[-98.608395,34.161275],[-98.730118,34.146576],[-98.798953,34.154739],[-98.96884,34.208605],[-99.157508,34.223282],[-99.186578,34.235477],[-99.19991,34.318314],[-99.252875,34.388077],[-99.270316,34.407226],[-99.360387,34.456094],[-99.374938,34.457873],[-99.38465,34.446788],[-99.404986,34.392065],[-99.536168,34.404744],[-99.632029,34.388495],[-99.685615,34.415829],[-99.867027,34.543369],[-99.94069,34.576339],[-99.999341,34.586721],[-100.002444,36.500902],[-103.000295,36.501232]]}},{"type":"Feature","properties":{},"geometry":{"type":"LineString","coordinates":[[-94.618067,37.000846],[-102.012783,37.000846]]}},{"type":"Feature","properties":{},"geometry":{"type":"LineString","coordinates":[[-96.453619,43.501171],[-96.598622,43.497501],[-96.581285,43.434923],[-96.541647,43.373455],[-96.534956,43.338057],[-96.542526,43.309031],[-96.569942,43.283323],[-96.563454,43.242685],[-96.55539,43.231676],[-96.49028,43.205529],[-96.468137,43.17023],[-96.461293,43.129767],[-96.462688,43.099181],[-96.502112,43.043294],[-96.513274,42.969059],[-96.562576,42.85857],[-96.616084,42.791388],[-96.626835,42.757001],[-96.62177,42.729535],[-96.538702,42.658585],[-96.53361,42.630164],[-96.506326,42.593579],[-96.480953,42.511259]]}},{"type":"Feature","properties":{},"geometry":{"type":"LineString","coordinates":[[-94.624527,39.086062],[-94.618067,37.000846]]}},{"type":"Feature","properties":{},"geometry":{"type":"LineString","coordinates":[[-94.622384,39.124404],[-94.624527,39.086062]]}},{"type":"Feature","properties":{},"geometry":{"type":"LineString","coordinates":[[-94.618067,37.000846],[-94.61838,36.500869]]}},{"type":"Feature","properties":{},"geometry":{"type":"LineString","coordinates":[[-95.765029,40.601868],[-91.73153,40.624653],[-91.682047,40.551869],[-91.627423,40.530753],[-91.616855,40.50688],[-91.545487,40.469318],[-91.529931,40.432316],[-91.441952,40.37945]]}},{"type":"Feature","properties":{},"geometry":{"type":"LineString","coordinates":[[-94.041307,33.011996],[-94.047327,33.554435]]}},{"type":"Feature","properties":{},"geometry":{"type":"LineString","coordinates":[[-94.61838,36.500869],[-94.439138,35.387251],[-94.484149,33.648434]]}},{"type":"Feature","properties":{},"geometry":{"type":"LineString","coordinates":[[-94.61838,36.500869],[-90.162243,36.500869],[-90.118078,36.422537],[-90.074473,36.371835],[-90.067057,36.334272],[-90.075659,36.296721],[-90.149279,36.215928],[-90.216164,36.178409],[-90.303043,36.099374],[-90.381068,35.99274],[-89.704772,36.001573]]}},{"type":"Feature","properties":{},"geometry":{"type":"LineString","coordinates":[[-80.519081,40.646956],[-80.520762,42.324392]]}},{"type":"Feature","properties":{},"geometry":{"type":"LineString","coordinates":[[-79.4775,39.722797],[-80.519443,39.722511],[-80.519081,40.646956]]}},{"type":"Feature","properties":{},"geometry":{"type":"LineString","coordinates":[[-93.79401,29.977264],[-93.710629,30.112813],[-93.720967,30.282904],[-93.750394,30.344713],[-93.715205,30.473253],[-93.720215,30.558265],[-93.665206,30.660768],[-93.624721,30.714348],[-93.579194,30.823805],[-93.568675,30.894655],[-93.549196,30.947719],[-93.562654,31.004903],[-93.530591,31.04619],[-93.551443,31.104066],[-93.557749,31.180421],[-93.596992,31.209754],[-93.665882,31.322584],[-93.663657,31.372198],[-93.736057,31.477667],[-93.737578,31.513812],[-93.806902,31.568799],[-93.820652,31.603966],[-93.826798,31.75026],[-93.845585,31.792942],[-93.905065,31.876998],[-94.043301,31.999232],[-94.041307,33.011996]]}},{"type":"Feature","properties":{},"geometry":{"type":"LineString","coordinates":[[-94.041307,33.011996],[-91.149958,33.015918]]}},{"type":"Feature","properties":{},"geometry":{"type":"LineString","coordinates":[[-90.293705,35.001114],[-88.173267,34.999005]]}},{"type":"Feature","properties":{},"geometry":{"type":"LineString","coordinates":[[-85.007282,31.001673],[-87.593694,31.000739],[-87.607438,30.929328],[-87.601055,30.860598],[-87.566195,30.795636],[-87.421659,30.671589],[-87.408278,30.641465],[-87.43381,30.545938],[-87.429382,30.477856],[-87.444807,30.442557],[-87.480106,30.411707],[-87.489511,30.377683]]}},{"type":"Feature","properties":{},"geometry":{"type":"LineString","coordinates":[[-83.09655,35.001642],[-83.096342,35.001114]]}},{"type":"Feature","properties":{},"geometry":{"type":"LineString","coordinates":[[-84.32469,34.988096],[-85.623604,35.000862]]}},{"type":"Feature","properties":{},"geometry":{"type":"LineString","coordinates":[[-83.114821,35.001477],[-84.32469,34.988096]]}},{"type":"Feature","properties":{},"geometry":{"type":"LineString","coordinates":[[-82.777529,35.086643],[-82.936974,35.04417],[-83.09655,35.001642],[-83.114821,35.001477]]}},{"type":"Feature","properties":{},"geometry":{"type":"LineString","coordinates":[[-81.045249,35.065615],[-80.933683,35.113669],[-80.79297,34.962772],[-80.784082,34.828629],[-79.653556,34.796791],[-78.564272,33.876664]]}},{"type":"Feature","properties":{},"geometry":{"type":"LineString","coordinates":[[-82.356083,35.201626],[-81.087316,35.155714]]}},{"type":"Feature","properties":{},"geometry":{"type":"LineString","coordinates":[[-71.800836,42.011963],[-71.387135,42.016863],[-71.379071,41.902407],[-71.33763,41.891443],[-71.340728,41.797916],[-71.267889,41.75084],[-71.233765,41.706554]]}},{"type":"Feature","properties":{},"geometry":{"type":"LineString","coordinates":[[-73.480568,42.055568],[-72.8077,42.034079],[-72.806458,42.00803],[-72.763326,42.011238],[-72.757624,42.034079],[-71.801638,42.022708],[-71.800836,42.011963]]}},{"type":"Feature","properties":{},"geometry":{"type":"LineString","coordinates":[[-71.800836,42.011963],[-71.795793,41.519951],[-71.804527,41.416746],[-71.829873,41.392741],[-71.842353,41.335513]]}},{"type":"Feature","properties":{},"geometry":{"type":"LineString","coordinates":[[-81.965277,37.539725],[-81.957707,37.507634],[-81.971396,37.47306],[-81.939382,37.432598],[-81.913059,37.368965],[-81.87564,37.329612],[-81.829266,37.298597],[-81.752164,37.270769],[-81.660769,37.221759],[-81.589017,37.20807],[-81.564836,37.209795],[-81.485537,37.257003],[-81.419366,37.282272],[-81.350043,37.333688],[-81.227128,37.263276],[-81.178118,37.263331],[-81.057345,37.293719],[-80.915369,37.311363],[-80.873071,37.34062],[-80.871852,37.399419],[-80.862425,37.414569],[-80.843485,37.421721],[-80.821084,37.423094],[-80.77003,37.401594],[-80.719845,37.401023],[-80.507402,37.469061],[-80.491417,37.46392],[-80.464512,37.432729],[-80.371183,37.472599],[-80.316075,37.5097],[-80.291971,37.565895],[-80.245818,37.620782],[-80.255376,37.645271],[-80.285303,37.677054],[-80.245928,37.751025],[-80.188074,37.824227],[-79.971731,38.046151],[-79.902693,38.180745],[-79.812879,38.267042],[-79.783447,38.336036],[-79.715255,38.404042],[-79.668651,38.54426],[-79.639603,38.572451],[-79.597745,38.577131],[-79.555272,38.559377],[-79.524675,38.533461],[-79.504834,38.49135],[-79.395871,38.454392],[-79.304169,38.449899],[-79.240272,38.476519],[-79.152502,38.618319],[-79.104239,38.672932],[-79.041189,38.789673],[-78.991992,38.819699],[-78.868725,38.817941],[-78.805499,38.860183],[-78.756786,38.908215],[-78.727309,38.923882],[-78.692757,38.921652],[-78.581477,38.999017],[-78.435238,39.160758],[-78.403707,39.262645],[-78.365782,39.335847],[-78.35105,39.410928],[-78.322221,39.451852],[-77.835791,39.145212],[-77.726642,39.346438]]}},{"type":"Feature","properties":{},"geometry":{"type":"LineString","coordinates":[[-79.4775,39.722797],[-75.78472,39.722357]]}},{"type":"Feature","properties":{},"geometry":{"type":"LineString","coordinates":[[-79.4775,39.722797],[-79.487981,39.210911]]}},{"type":"Feature","properties":{},"geometry":{"type":"LineString","coordinates":[[-75.78472,39.722357],[-75.707025,38.455073],[-75.037661,38.45559]]}},{"type":"Feature","properties":{},"geometry":{"type":"LineString","coordinates":[[-75.659256,37.953965],[-75.620002,37.999207],[-75.22411,38.040526]]}},{"type":"Feature","properties":{},"geometry":{"type":"LineString","coordinates":[[-77.019737,38.806526],[-76.931242,38.88822],[-77.042116,39.011783],[-77.122053,38.943536]]}},{"type":"Feature","properties":{},"geometry":{"type":"LineString","coordinates":[[-74.699051,41.357299],[-74.720365,41.394861],[-74.75662,41.423909],[-74.935367,41.474369],[-74.981257,41.507702],[-75.02273,41.552866],[-75.051361,41.608369],[-75.066192,41.666608],[-75.066906,41.713212],[-75.053679,41.765045],[-75.094768,41.799487],[-75.095537,41.83171],[-75.121893,41.853364],[-75.238864,41.892201],[-75.273977,41.94666],[-75.351342,41.998417],[-79.762958,42.0009],[-79.762024,42.538977]]}},{"type":"Feature","properties":{},"geometry":{"type":"LineString","coordinates":[[-73.253327,42.752222],[-73.507287,42.080012],[-73.480568,42.055568]]}},{"type":"Feature","properties":{},"geometry":{"type":"LineString","coordinates":[[-73.480568,42.055568],[-73.544729,41.295951],[-73.484139,41.218959],[-73.723015,41.104514],[-73.630466,40.99186]]}},{"type":"Feature","properties":{},"geometry":{"type":"LineString","coordinates":[[-74.699051,41.357299],[-73.910079,40.992256]]}},{"type":"Feature","properties":{},"geometry":{"type":"LineString","coordinates":[[-72.46686,42.730315],[-73.253327,42.752222]]}},{"type":"Feature","properties":{},"geometry":{"type":"LineString","coordinates":[[-73.253327,42.752222],[-73.2802,42.813152],[-73.266555,42.864777],[-73.247098,43.553048],[-73.30616,43.616253],[-73.330484,43.62669],[-73.349238,43.620384],[-73.391436,43.578526],[-73.415925,43.589644],[-73.413365,43.627854],[-73.375847,43.762184],[-73.374968,43.804152],[-73.426131,44.074855],[-73.38112,44.187432],[-73.320915,44.268874],[-73.324639,44.36786],[-73.309753,44.45964],[-73.372078,44.597332],[-73.348568,44.775299],[-73.365805,44.860366],[-73.345052,44.938864],[-73.352182,45.005419]]}},{"type":"Feature","properties":{},"geometry":{"type":"LineString","coordinates":[[-70.806112,42.876763],[-70.923489,42.881564],[-70.974082,42.871676],[-71.076177,42.825083],[-71.139294,42.808131],[-71.242335,42.729535],[-71.329621,42.702487],[-72.46686,42.730315]]}},{"type":"Feature","properties":{},"geometry":{"type":"LineString","coordinates":[[-70.733096,43.070034],[-70.812835,43.163649],[-70.829029,43.23907],[-70.919699,43.328103],[-70.955635,43.389396],[-70.967545,43.458148],[-70.962436,43.532152],[-71.084549,45.294008]]}},{"type":"Feature","properties":{},"geometry":{"type":"LineString","coordinates":[[-96.453619,43.501171],[-96.453668,45.297337],[-96.529759,45.371549],[-96.696109,45.431776],[-96.81491,45.557427],[-96.845452,45.595868],[-96.85106,45.626004],[-96.813619,45.659182],[-96.662672,45.755653],[-96.614689,45.799972],[-96.556401,45.942773]]}},{"type":"Feature","properties":{},"geometry":{"type":"LineString","coordinates":[[-91.245253,43.502412],[-96.453619,43.501171]]}},{"type":"Feature","properties":{},"geometry":{"type":"LineString","coordinates":[[-84.796113,41.701434],[-83.464197,41.739447],[-83.121665,41.95]]}},{"type":"Feature","properties":{},"geometry":{"type":"LineString","coordinates":[[-89.957677,47.287137],[-89.498383,47.997897]]}},{"type":"Feature","properties":{},"geometry":{"type":"LineString","coordinates":[[-87.221257,41.760728],[-87.039126,42.492802]]}},{"type":"Feature","properties":{},"geometry":{"type":"LineString","coordinates":[[-90.650585,42.512984],[-87.039126,42.492802]]}},{"type":"Feature","properties":{},"geometry":{"type":"LineString","coordinates":[[-84.821711,39.091984],[-84.796113,41.701434]]}},{"type":"Feature","properties":{},"geometry":{"type":"LineString","coordinates":[[-87.221257,41.760728],[-84.796399,41.759728],[-84.796113,41.701434]]}},{"type":"Feature","properties":{},"geometry":{"type":"LineString","coordinates":[[-87.039126,42.492802],[-87.15501,43.326763],[-87.141727,43.657803],[-87.03249,44.091466],[-86.7147,44.846205],[-86.535952,45.041487],[-86.264524,45.226903],[-86.77429,45.452365],[-87.115272,45.452365],[-87.244384,45.289789],[-87.419802,45.183859],[-87.45954,45.067997],[-87.653613,45.121797],[-87.694208,45.161073],[-87.71885,45.201272],[-87.720916,45.242768],[-87.66271,45.345193],[-87.657568,45.361804],[-87.664226,45.371286],[-87.696394,45.382832],[-87.768563,45.364364],[-87.84182,45.360794],[-87.86543,45.367825],[-87.874911,45.385392],[-87.874032,45.412814],[-87.859135,45.445498],[-87.815178,45.505824],[-87.814662,45.563239],[-87.794557,45.596033],[-87.814091,45.657029],[-87.809081,45.686044],[-87.839832,45.717981],[-87.922537,45.759971],[-88.116116,45.815804],[-88.096483,45.878415],[-88.104415,45.905155],[-88.151745,45.945409],[-88.35475,45.992288],[-88.492991,46.013524],[-88.62954,46.014041],[-88.727241,46.031114],[-88.837335,46.036618],[-89.119289,46.149195],[-90.11855,46.341664],[-90.23038,46.509766],[-90.318227,46.536639],[-90.34088,46.558446],[-90.39234,46.548965],[-90.412588,46.585275],[-89.957677,47.287137]]}},{"type":"Feature","properties":{},"geometry":{"type":"LineString","coordinates":[[-91.656449,31.001805],[-89.735314,31.001157]]}},{"type":"Feature","properties":{},"geometry":{"type":"LineString","coordinates":[[-89.487221,36.503066],[-89.557313,36.501078]]}},{"type":"Feature","properties":{},"geometry":{"type":"LineString","coordinates":[[-114.610543,34.991117],[-116.659592,36.589968],[-118.126272,37.69238],[-120.000062,39.000259],[-120.000809,42.000559]]}},{"type":"Feature","properties":{},"geometry":{"type":"LineString","coordinates":[[-67.612891,47.998567],[-68.113516,47.998567],[-68.113516,47.929375],[-68.377913,47.929375],[-68.37921,47.588986]]}},{"type":"Feature","properties":{},"geometry":{"type":"LineString","coordinates":[[-123.819157,60.001087],[-139.056519,60.001582]]}},{"type":"Feature","properties":{},"geometry":{"type":"LineString","coordinates":[[-120,60.001087],[-123.819157,60.001087]]}},{"type":"Feature","properties":{},"geometry":{"type":"LineString","coordinates":[[-64.030942,46.012668],[-64.051354,45.977863],[-64.159592,45.964789],[-64.272839,45.849861],[-64.314653,45.835678]]}},{"type":"Feature","properties":{},"geometry":{"type":"LineString","coordinates":[[-64.614272,60.30598],[-64.81586,60.267429],[-64.846688,60.250763],[-64.846786,60.238183],[-64.78935,60.196117],[-64.644528,60.161345],[-64.622303,60.141317],[-64.649867,60.110083],[-64.782165,60.063775],[-64.88035,60.049669],[-64.887271,60.035409],[-64.868155,60.008789],[-64.834042,59.985772],[-64.682376,59.942904],[-64.661469,59.921513],[-64.665578,59.905539],[-64.761851,59.864044],[-64.790822,59.815572],[-64.818024,59.540244],[-64.775551,59.488311],[-64.714621,59.466295],[-64.444819,59.527994],[-64.385295,59.514766],[-64.37867,59.475073],[-64.425757,59.456418],[-64.503134,59.398652],[-64.518669,59.35586],[-64.519493,59.225793],[-64.505485,59.166005],[-64.477811,59.116182],[-64.441698,59.091068],[-64.332374,59.043761],[-64.324364,59.019964],[-64.35818,59.001925],[-64.393501,58.998497],[-64.770256,59.048693],[-64.832834,59.020019],[-64.851126,58.983687],[-64.848313,58.949223],[-64.80862,58.929371],[-64.294075,58.865991],[-64.235562,58.785769],[-64.191781,58.76874],[-63.727137,58.861684],[-63.665932,58.85362],[-63.591796,58.829791],[-63.53526,58.798787],[-63.496709,58.753447],[-63.55319,58.731606],[-63.960508,58.684222],[-64.031414,58.666314],[-64.070811,58.641694],[-64.084994,58.621171],[-64.085873,58.599375],[-64.062494,58.554825],[-64.038742,58.544751],[-63.882374,58.55521],[-63.840823,58.505167],[-63.83711,58.482579],[-63.848008,58.459738],[-64.02268,58.398764],[-64.09776,58.35918],[-64.371386,58.169293],[-64.394589,58.144332],[-64.400379,58.121414],[-64.386998,58.098881],[-64.226586,58.01755],[-64.133576,57.87543],[-64.045466,57.785255],[-63.985986,57.80314],[-63.96131,57.80169],[-63.921463,57.783299],[-63.871915,57.731158],[-63.841911,57.713349],[-63.793494,57.705966],[-63.715568,57.695859],[-63.617636,57.726137],[-63.601255,57.723061],[-63.598157,57.692453],[-63.614692,57.669294],[-63.743726,57.580876],[-63.758503,57.552927],[-63.761557,57.513134],[-63.7421,57.395778],[-63.799899,57.31872],[-63.793285,57.279038],[-63.757854,57.227666],[-63.791813,57.129876],[-63.876353,57.023034],[-63.903302,56.889342],[-63.950379,56.863458],[-64.03037,56.787081],[-64.100661,56.737884],[-64.115591,56.707397],[-64.111867,56.690906],[-63.954905,56.52699],[-63.925572,56.475366],[-63.954927,56.43888],[-64.052651,56.429739],[-64.136103,56.394572],[-64.118711,56.334334],[-64.12148,56.299409],[-64.083654,56.27525],[-63.912817,56.229019],[-63.899325,56.212331],[-63.99172,56.144633],[-64.004146,56.097458],[-63.885889,56.088416],[-63.836121,56.063323],[-63.578305,56.025574],[-63.558464,55.992495],[-63.698407,55.92338],[-63.708405,55.883356],[-63.700572,55.860911],[-63.524417,55.705696],[-63.415169,55.596009],[-63.304559,55.54211],[-63.154353,55.51359],[-63.159473,55.440443],[-63.15131,55.404473],[-63.111825,55.33983],[-63.161385,55.307475],[-63.429275,55.209883],[-63.510893,55.167641],[-63.534019,55.140351],[-63.551158,55.086254],[-63.48012,54.987235],[-63.476044,54.961867],[-63.491491,54.91779],[-63.569659,54.776297],[-63.658,54.644362],[-63.698825,54.615194],[-63.751241,54.612172],[-63.91018,54.634035],[-64.341053,54.72632],[-64.81519,54.733868],[-65.121785,54.719168],[-65.675804,54.744931],[-65.741645,54.768881],[-65.796829,54.805026],[-65.868119,54.898256],[-65.883643,54.907188],[-66.082836,54.941707],[-66.156631,54.967756],[-66.239798,55.008372],[-66.617914,55.25596],[-66.733414,55.318901],[-66.773986,55.32825],[-66.799617,55.311199],[-66.79731,55.29383],[-66.725064,55.21319],[-66.719044,55.192547],[-66.747443,55.129145],[-66.692797,54.998012],[-66.710364,54.948222],[-66.656729,54.846785],[-66.650785,54.798566],[-66.724449,54.747974],[-66.867051,54.780977],[-67.166725,54.937477],[-67.301747,55.063721],[-67.33865,55.074598],[-67.40815,55.071785],[-67.426442,55.058865],[-67.437088,55.036223],[-67.415775,54.983774],[-67.372027,54.91735],[-67.290025,54.825779],[-67.199179,54.682089],[-67.146873,54.653041],[-67.15018,54.616666],[-67.236071,54.585662],[-67.285521,54.518558],[-67.314568,54.517393],[-67.536514,54.572665],[-67.601421,54.552791],[-67.620131,54.506539],[-67.609716,54.45164],[-67.515333,54.281725],[-67.511323,54.236176],[-67.681061,54.141342],[-67.731412,54.099924],[-67.76147,54.060735],[-67.757252,54.033654],[-67.470992,53.796459],[-67.455743,53.730464],[-67.476957,53.635202],[-67.47353,53.613317],[-67.457094,53.601221],[-67.164913,53.543038],[-67.128482,53.502828],[-67.076055,53.417409],[-67.025903,53.393118],[-66.980353,53.384],[-66.944439,53.355139],[-66.937902,53.328837],[-66.965236,53.182961],[-66.970301,53.072988],[-67.028023,52.980483],[-67.053654,52.920025],[-67.069694,52.832585],[-67.068024,52.754922],[-67.029473,52.72037],[-66.95102,52.69831],[-66.855834,52.698442],[-66.814778,52.6865],[-66.688348,52.726885],[-66.671297,52.748825],[-66.631384,52.910258],[-66.615278,52.93155],[-66.521026,52.958499],[-66.489913,53.005037],[-66.467951,53.018627],[-66.428038,53.010816],[-66.389893,52.991985],[-66.300212,52.896877],[-66.310473,52.861006],[-66.341345,52.840077],[-66.356802,52.806262],[-66.36636,52.741431],[-66.41659,52.688433],[-66.426093,52.660868],[-66.394233,52.417829],[-66.401681,52.397834],[-66.463403,52.341331],[-66.462216,52.294529],[-66.439277,52.229117],[-66.407438,52.183688],[-66.345453,52.154849],[-66.326821,52.188654],[-66.296026,52.294584],[-66.279535,52.300814],[-66.096965,52.209528],[-66.035782,52.109245],[-65.97884,52.080746],[-65.882929,52.054214],[-65.8268,52.05238],[-65.805904,52.063696],[-65.780558,52.103895],[-65.690635,52.093589],[-65.6311,52.0731],[-65.589144,52.073364],[-65.551647,52.093952],[-65.474271,52.196246],[-65.4521,52.202914],[-65.268156,52.185215],[-65.137133,52.154695],[-65.03618,52.113464],[-64.93215,52.055016],[-64.764642,51.905416],[-64.626719,51.825314],[-64.638969,51.790532],[-64.692736,51.762626],[-64.702327,51.745422],[-64.697416,51.720461],[-64.598012,51.600369],[-64.506342,51.608895],[-64.290516,51.728777],[-64.289373,51.769086],[-64.326067,51.81146],[-64.334571,51.841904],[-64.32142,51.929651],[-64.270828,52.083229],[-64.259611,52.099511],[-64.15957,52.148027],[-64.130676,52.186688],[-64.103188,52.378487],[-64.183465,52.554158],[-64.178477,52.815325],[-64.139366,52.854239],[-64.007892,52.878222],[-63.973373,52.895064],[-63.917464,53.065594],[-63.90506,53.076921],[-63.798965,53.104299],[-63.722544,53.109188],[-63.671612,53.100739],[-63.606188,53.034854],[-63.554585,52.964311],[-63.548697,52.939712],[-63.566791,52.825872],[-63.550246,52.774149],[-63.409687,52.688719],[-63.42276,52.669888],[-63.522549,52.648805],[-63.810677,52.611254],[-63.898545,52.589249],[-63.955466,52.565606],[-64.017615,52.525473],[-64.059418,52.48512],[-64.06167,52.457753],[-63.951104,52.428793],[-63.935492,52.380937],[-63.883956,52.344924],[-63.765589,52.297529],[-63.683752,52.138029],[-63.664295,52.060125],[-63.70401,52.04837],[-63.785507,52.050776],[-63.792198,52.044063],[-63.783365,52.020442],[-63.756899,52.010522],[-63.606573,52.000832],[-57.101029,52.001117],[-57.100128,51.443342]]}},{"type":"Feature","properties":{},"geometry":{"type":"LineString","coordinates":[[-102.001649,60.001087],[-102.005604,63.84928],[-101.986636,64.080223],[-101.999144,64.228429],[-108.97293,64.779195],[-109.215113,64.813044],[-109.516385,64.902912],[-110.669466,65.497141],[-112.503903,65.502337],[-120.677951,68.002848],[-120.680874,69.648666],[-116.650495,69.649808],[-116.693671,69.695489],[-117.075303,69.889014],[-117.055358,70.002184],[-112.881064,70.00136],[-112.874939,69.833357],[-112.649994,69.834445],[-112.499822,69.911547],[-112.500025,70.001151],[-110.000025,70.001151],[-110.004365,78.686723]]}},{"type":"Feature","properties":{},"geometry":{"type":"LineString","coordinates":[[-102.001649,60.001087],[-110.000025,60.001087]]}},{"type":"Feature","properties":{},"geometry":{"type":"LineString","coordinates":[[-120,60.001087],[-110.000025,60.001087]]}},{"type":"Feature","properties":{},"geometry":{"type":"LineString","coordinates":[[-110.000025,60.001087],[-109.999432,48.993083]]}},{"type":"Feature","properties":{},"geometry":{"type":"LineString","coordinates":[[-88.948495,56.851307],[-89.980573,56.216099],[-91.378451,55.317011],[-92.600208,54.480677],[-93.620223,53.747933],[-95.153826,52.822357],[-95.155298,49.369672]]}},{"type":"Feature","properties":{},"geometry":{"type":"LineString","coordinates":[[-102.001649,60.001087],[-94.771886,60.001768]]}},{"type":"Feature","properties":{},"geometry":{"type":"LineString","coordinates":[[-102.001649,60.001087],[-102.001105,55.817526],[-101.367271,48.993138]]}},{"type":"Feature","properties":{},"geometry":{"type":"LineString","coordinates":[[-116.896479,46.002099],[-119.01968,46.000341],[-119.049909,45.981488],[-119.177345,45.94508],[-119.429113,45.93417],[-119.934276,45.837875],[-120.156046,45.762168],[-120.351432,45.725166],[-120.715777,45.689823],[-121.045241,45.639044],[-121.184278,45.64378],[-121.242698,45.687033],[-121.402121,45.71184],[-121.662519,45.718135],[-121.882014,45.689461],[-122.085124,45.602647],[-122.202535,45.591067],[-122.649849,45.627443],[-122.725913,45.67375],[-122.74643,45.749688],[-122.843373,45.978094],[-122.941997,46.114862],[-123.042275,46.160027],[-123.120904,46.178781],[-123.220589,46.153622]]}},{"type":"Feature","properties":{},"geometry":{"type":"LineString","coordinates":[[-116.896479,46.002099],[-116.930196,46.055954],[-116.947845,46.124322],[-116.92211,46.163642],[-116.942962,46.232108],[-117.010396,46.329623],[-117.038999,46.396552],[-117.025046,46.429159],[-117.039054,48.993083]]}},{"type":"Feature","properties":{},"geometry":{"type":"LineString","coordinates":[[-117.016675,42.000559],[-117.020498,43.813194],[-116.957634,43.964135],[-116.943967,44.037677],[-116.960683,44.079118],[-116.949779,44.119009],[-116.91131,44.157406],[-116.91242,44.199473],[-116.95319,44.245308],[-117.028952,44.275542],[-117.139744,44.290264],[-117.197312,44.3438],[-117.201701,44.436206],[-117.118919,44.578314],[-116.948955,44.770114],[-116.855857,44.90574],[-116.839553,44.98516],[-116.737342,45.168841],[-116.549157,45.456737],[-116.477043,45.641088],[-116.520917,45.721914],[-116.616827,45.79917],[-116.764725,45.87291],[-116.869194,45.958483],[-116.896479,46.002099]]}},{"type":"Feature","properties":{},"geometry":{"type":"LineString","coordinates":[[-114.610543,34.991117],[-114.610933,34.907401],[-114.557473,34.794571],[-114.398001,34.589698],[-114.376913,34.5397],[-114.371024,34.488492],[-114.308028,34.43289],[-114.15879,34.355217],[-114.125068,34.317182],[-114.125612,34.286509],[-114.32932,34.142027],[-114.418282,34.051149],[-114.509051,33.903921],[-114.495098,33.784653],[-114.499257,33.685875],[-114.521559,33.607608],[-114.556001,33.535626],[-114.60261,33.469895],[-114.651159,33.430619],[-114.701702,33.417809],[-114.719428,33.330863],[-114.704388,33.169781],[-114.648088,33.07175],[-114.550546,33.036792],[-114.490863,32.983618],[-114.469,32.912306],[-114.477531,32.842004],[-114.516467,32.772757],[-114.582176,32.734723],[-114.72095,32.724483],[-114.724773,32.715343]]}},{"type":"Feature","properties":{},"geometry":{"type":"LineString","coordinates":[[-114.610543,34.991117],[-114.590987,35.352776],[-114.648528,35.475922],[-114.662063,35.545355],[-114.645166,35.630543],[-114.650126,35.683508],[-114.677076,35.729805],[-114.687101,35.917341],[-114.732321,35.983666],[-114.741362,36.013516],[-114.715759,36.084982],[-114.669144,36.12172],[-114.592975,36.14756],[-114.505277,36.156426],[-114.406087,36.148307],[-114.331545,36.116293],[-114.281573,36.060328],[-114.232146,36.031698],[-114.183207,36.030303],[-114.119437,36.076665],[-114.061924,36.175212],[-114.042879,36.181771],[-114.04027,37.004153]]}},{"type":"Feature","properties":{},"geometry":{"type":"LineString","coordinates":[[-103.000295,36.501232],[-103.042153,36.500616],[-103.065642,32.002748],[-106.668262,32.000946],[-106.566358,31.819529],[-106.445382,31.768398]]}},{"type":"Feature","properties":{},"geometry":{"type":"LineString","coordinates":[[-95.34668,40.001487],[-95.116203,39.87209],[-95.055537,39.870794],[-94.984016,39.891162],[-94.929936,39.861499],[-94.893296,39.781815],[-94.898597,39.741144],[-94.945827,39.739485],[-95.004764,39.691552],[-95.075356,39.597377],[-95.057937,39.508959],[-94.952518,39.426375],[-94.882294,39.343131],[-94.847203,39.259152],[-94.777852,39.193992],[-94.622384,39.124404]]}},{"type":"Feature","properties":{},"geometry":{"type":"LineString","coordinates":[[-95.765029,40.601868],[-95.739551,40.570853],[-95.684696,40.466362],[-95.66157,40.362761],[-95.607106,40.29547],[-95.52122,40.264577],[-95.463652,40.198065],[-95.434296,40.09598],[-95.34668,40.001487]]}},{"type":"Feature","properties":{},"geometry":{"type":"LineString","coordinates":[[-96.480953,42.511259],[-96.451004,42.505985],[-96.383751,42.417776],[-96.356104,42.260133],[-96.295333,42.132912],[-96.201384,42.036122],[-96.154203,41.965293],[-96.153763,41.920436],[-96.13123,41.872437],[-96.086637,41.821372],[-96.068806,41.734328],[-96.077771,41.611281],[-96.058627,41.54578],[-96.011397,41.537881],[-95.990957,41.52049],[-95.997367,41.493639],[-95.98158,41.473798],[-95.943567,41.460933],[-95.932977,41.425458],[-95.94972,41.367428],[-95.936025,41.330986],[-95.891943,41.316166],[-95.883626,41.287557],[-95.911169,41.245183],[-95.906906,41.21195],[-95.870887,41.187824],[-95.846597,41.080333],[-95.834017,40.88949],[-95.838148,40.777748],[-95.859,40.745108],[-95.826107,40.676179],[-95.765029,40.601868]]}},{"type":"Feature","properties":{},"geometry":{"type":"LineString","coordinates":[[-96.480953,42.511259],[-96.55795,42.524794],[-96.632778,42.568673],[-96.675542,42.637601],[-96.804527,42.701421],[-97.019733,42.760176],[-97.164478,42.813196],[-97.23879,42.860536],[-97.416658,42.881004],[-97.698139,42.874643],[-97.880918,42.849583],[-97.964947,42.805868],[-98.143283,42.852263],[-98.441765,43.001095],[-104.028862,43.001403]]}},{"type":"Feature","properties":{},"geometry":{"type":"LineString","coordinates":[[-91.149958,33.015918],[-91.144179,32.966875],[-91.096081,32.937684],[-91.093378,32.885027],[-91.13606,32.808847],[-91.135587,32.755783],[-91.092082,32.725857],[-91.094356,32.69426],[-91.142421,32.661026],[-91.14965,32.625013],[-91.11612,32.586231],[-91.100816,32.541374],[-91.103815,32.490497],[-91.059276,32.423755],[-90.990019,32.381051],[-90.9447,32.330711],[-90.937647,32.277329],[-90.947721,32.240074],[-91.048158,32.145921],[-91.074591,32.131321],[-91.088698,32.10414],[-91.092543,32.045847],[-91.156527,31.970689],[-91.286496,31.883974],[-91.37253,31.773716],[-91.414706,31.639979],[-91.459091,31.554978],[-91.505728,31.518701],[-91.529008,31.448751],[-91.528953,31.345194],[-91.558693,31.287911],[-91.61825,31.276958],[-91.630807,31.217599],[-91.596365,31.109911],[-91.611043,31.0649],[-91.652615,31.029557],[-91.656449,31.001805]]}},{"type":"Feature","properties":{},"geometry":{"type":"LineString","coordinates":[[-90.293705,35.001114],[-90.293419,34.970067],[-90.282104,34.945304],[-90.31994,34.899161],[-90.41595,34.851623],[-90.467575,34.805261],[-90.47476,34.760052],[-90.497216,34.738091],[-90.53925,34.72817],[-90.563848,34.661164],[-90.584008,34.503708],[-90.635424,34.413873],[-90.718107,34.391703],[-90.762338,34.356426],[-90.768117,34.308108],[-90.817215,34.25222],[-90.90972,34.188763],[-90.940251,34.128558],[-90.908786,34.071561],[-90.914729,34.048622],[-90.943107,34.029681],[-91.043148,34.002864],[-91.060353,33.989296],[-91.070175,33.9742],[-91.05007,33.945163],[-91.038183,33.901394],[-91.052707,33.827599],[-91.100299,33.767449],[-91.184125,33.71567],[-91.207482,33.675669],[-91.17037,33.647456],[-91.172721,33.616683],[-91.214579,33.583406],[-91.192958,33.52253],[-91.15433,33.500206],[-91.141015,33.438507],[-91.168459,33.35946],[-91.163339,33.294454],[-91.106781,33.217923],[-91.152858,33.040571],[-91.149958,33.015918]]}},{"type":"Feature","properties":{},"geometry":{"type":"LineString","coordinates":[[-89.704772,36.001573],[-89.70932,35.98305],[-89.689171,35.943599],[-89.688908,35.920956],[-89.703772,35.906904],[-89.763593,35.888766],[-89.769943,35.864299],[-89.763593,35.828044],[-89.779655,35.805742],[-89.894561,35.750503],[-89.943505,35.679136],[-89.92652,35.591652],[-89.967345,35.50331],[-90.066024,35.414112],[-90.107882,35.314203],[-90.092919,35.203592],[-90.14227,35.114296],[-90.255956,35.046389],[-90.293705,35.001114]]}},{"type":"Feature","properties":{},"geometry":{"type":"LineString","coordinates":[[-89.557313,36.501078],[-89.540603,36.426667],[-89.55527,36.372922],[-89.604093,36.351916],[-89.611707,36.321968],[-89.583549,36.287657],[-89.583549,36.272233],[-89.594623,36.259445],[-89.654081,36.247964],[-89.674549,36.220575],[-89.63413,36.167917],[-89.641886,36.104515],[-89.697697,36.030303],[-89.704772,36.001573]]}},{"type":"Feature","properties":{},"geometry":{"type":"LineString","coordinates":[[-89.487221,36.503066],[-89.51952,36.554823],[-89.535582,36.555284],[-89.549645,36.553065],[-89.55549,36.540771],[-89.557313,36.501078]]}},{"type":"Feature","properties":{},"geometry":{"type":"LineString","coordinates":[[-89.450329,36.500023],[-89.471488,36.488883],[-89.487221,36.503066]]}},{"type":"Feature","properties":{},"geometry":{"type":"LineString","coordinates":[[-89.154313,36.992112],[-89.122486,36.911593],[-89.129517,36.811057],[-89.156334,36.715718],[-89.203048,36.62552],[-89.256123,36.594407],[-89.330534,36.615907],[-89.397462,36.587793],[-89.450329,36.500023]]}},{"type":"Feature","properties":{},"geometry":{"type":"LineString","coordinates":[[-91.441952,40.37945],[-91.499784,40.226025],[-91.501652,40.097529],[-91.466814,39.942864],[-91.425868,39.826815],[-91.378737,39.749406],[-91.209899,39.602804],[-90.919376,39.386901],[-90.737223,39.181797],[-90.663527,38.987493],[-90.577075,38.909611],[-90.477968,38.948118],[-90.35435,38.93021],[-90.220075,38.897679],[-90.134206,38.84667],[-90.126768,38.832618],[-90.132195,38.818644],[-90.316601,38.457809],[-90.373993,38.309757],[-90.365775,38.254254],[-90.299,38.173999],[-90.173581,38.069047],[-90.063871,38.000525],[-89.969828,37.968533],[-89.822963,37.884092],[-89.623286,37.747257],[-89.523421,37.644524],[-89.523421,37.575947],[-89.502931,37.5058],[-89.461974,37.434125],[-89.461974,37.36568],[-89.502931,37.300509],[-89.486913,37.212739],[-89.413942,37.102415],[-89.35188,37.035519],[-89.290016,37.012777],[-89.291675,37.070653],[-89.272394,37.07998],[-89.224911,37.052679],[-89.154313,36.992112]]}},{"type":"Feature","properties":{},"geometry":{"type":"LineString","coordinates":[[-90.650585,42.512984],[-90.589633,42.444802],[-90.484735,42.383257],[-90.425036,42.325656],[-90.41049,42.272075],[-90.346571,42.214837],[-90.233214,42.154016],[-90.167516,42.100304],[-90.149433,42.053711],[-90.152443,41.98152],[-90.176613,41.883643],[-90.217768,41.81311],[-90.276006,41.770011],[-90.319237,41.709652],[-90.347527,41.632034],[-90.43667,41.560359],[-90.586732,41.494727],[-90.754065,41.449826],[-90.938756,41.42559],[-91.048114,41.369098],[-91.082106,41.280318],[-91.066505,41.205907],[-91.001334,41.145966],[-90.963827,41.082531],[-90.954005,41.01558],[-91.000126,40.904684],[-91.102134,40.749788],[-91.215128,40.649559],[-91.339043,40.603977],[-91.394184,40.536653],[-91.380539,40.447554],[-91.390778,40.397127],[-91.441952,40.37945]]}},{"type":"Feature","properties":{},"geometry":{"type":"LineString","coordinates":[[-91.245253,43.502412],[-91.238277,43.440241],[-91.218688,43.395285],[-91.178357,43.358931],[-91.117196,43.331157],[-91.106968,43.278028],[-91.147585,43.199585],[-91.161328,43.102334],[-91.148156,42.986209],[-91.117592,42.881652],[-91.069582,42.788554],[-90.959949,42.72034],[-90.788749,42.676933],[-90.687873,42.610322],[-90.650585,42.512984]]}},{"type":"Feature","properties":{},"geometry":{"type":"LineString","coordinates":[[-91.245253,43.502412],[-91.278432,43.797428],[-91.319916,43.936284],[-91.382692,43.990799],[-91.514846,44.054212],[-91.716435,44.126458],[-91.840976,44.194156],[-91.912299,44.288869],[-92.055121,44.39982],[-92.148582,44.445248],[-92.240307,44.462145],[-92.313091,44.497796],[-92.366941,44.552266],[-92.441587,44.586576],[-92.537031,44.600792],[-92.643538,44.645342],[-92.769809,44.72585],[-92.799214,44.790032],[-92.784668,44.822563],[-92.763404,44.934261],[-92.79304,45.071359],[-92.759059,45.11058],[-92.76614,45.236461],[-92.753918,45.277572],[-92.685808,45.380536],[-92.682605,45.433095],[-92.707022,45.493761],[-92.757461,45.543244],[-92.892488,45.594759],[-92.89652,45.658578],[-92.874712,45.706094],[-92.786448,45.795501],[-92.738081,45.874668],[-92.693949,45.909012],[-92.424613,46.027807],[-92.367276,46.035981],[-92.292629,46.084375],[-92.291646,46.660718],[-92.224003,46.671023],[-92.194549,46.706971],[-92.125346,46.763012],[-91.964923,46.729778],[-91.468363,46.925093],[-90.654024,47.309098],[-89.957677,47.287137]]}},{"type":"Feature","properties":{},"geometry":{"type":"LineString","coordinates":[[-88.041991,37.788851],[-88.073247,37.770922],[-88.128959,37.69951],[-88.140385,37.620651],[-88.107514,37.534353],[-88.190504,37.464557],[-88.389335,37.411262],[-88.494672,37.364285],[-88.506603,37.323591],[-88.492782,37.261551],[-88.453275,37.178143],[-88.446244,37.120421],[-88.471666,37.088385],[-88.613808,37.110083],[-88.872602,37.185537],[-89.046207,37.182977],[-89.134603,37.102469],[-89.165069,37.041561],[-89.154313,36.992112]]}},{"type":"Feature","properties":{},"geometry":{"type":"LineString","coordinates":[[-84.821711,39.091984],[-84.837422,39.082678],[-84.860603,39.039711],[-84.835488,38.99604],[-84.836598,38.960565],[-84.863888,38.933231],[-84.854165,38.912896],[-84.807451,38.899536],[-84.78962,38.868379],[-84.800739,38.819391],[-84.901241,38.769568],[-85.16989,38.690378],[-85.24663,38.72704],[-85.306747,38.737191],[-85.405426,38.729962],[-85.444779,38.683095],[-85.424828,38.596588],[-85.458677,38.530209],[-85.546326,38.484011],[-85.608904,38.423026],[-85.646422,38.347297],[-85.706287,38.301353],[-85.788453,38.285214],[-85.854932,38.215033],[-85.905678,38.090909],[-85.961159,38.014016],[-86.021331,37.984353],[-86.103442,37.991868],[-86.207527,38.036571],[-86.267622,38.082582],[-86.28375,38.129867],[-86.3146,38.163771],[-86.361445,38.178987],[-86.354952,38.15886],[-86.365137,38.1446],[-86.429627,38.139689],[-86.457378,38.120155],[-86.448336,38.085966],[-86.462542,38.061763],[-86.499961,38.047502],[-86.519857,38.01484],[-86.522186,37.963732],[-86.548641,37.917062],[-86.599233,37.874797],[-86.673128,37.889036],[-86.770335,37.959777],[-86.86908,37.976135],[-86.96944,37.938046],[-87.044268,37.886443],[-87.093563,37.821283],[-87.141035,37.805243],[-87.209403,37.854846],[-87.372385,37.923478],[-87.457288,37.938101],[-87.518449,37.921566],[-87.561449,37.929059],[-87.587388,37.95569],[-87.599407,37.946472],[-87.600802,37.886729],[-87.615392,37.848936],[-87.643253,37.833038],[-87.664567,37.845541],[-87.67942,37.886366],[-87.714456,37.899604],[-87.769651,37.885234],[-87.825253,37.891431],[-87.874428,37.915743],[-87.906002,37.901824],[-87.902069,37.85511],[-87.912484,37.81769],[-87.938115,37.793817],[-87.974546,37.788027],[-88.021776,37.800431],[-88.041991,37.788851]]}},{"type":"Feature","properties":{},"geometry":{"type":"LineString","coordinates":[[-82.612778,38.448218],[-82.758226,38.541162],[-82.844623,38.627668],[-82.880438,38.710253],[-83.000068,38.713999],[-83.203469,38.638907],[-83.35697,38.627405],[-83.460582,38.679502],[-83.538387,38.69986],[-83.616313,38.682776],[-83.689878,38.649531],[-83.752269,38.669373],[-83.828086,38.731226],[-83.948386,38.774226],[-84.113236,38.798385],[-84.227285,38.865204],[-84.290435,38.974705],[-84.358022,39.049917],[-84.43006,39.090896],[-84.508865,39.102838],[-84.594547,39.085776],[-84.660542,39.094467],[-84.706948,39.128909],[-84.765901,39.124998],[-84.821711,39.091984]]}},{"type":"Feature","properties":{},"geometry":{"type":"LineString","coordinates":[[-80.519081,40.646956],[-80.637524,40.603263],[-80.659047,40.562976],[-80.623187,40.51156],[-80.604093,40.445203],[-80.601819,40.363893],[-80.668275,40.185244],[-80.803517,39.909136],[-80.872192,39.735508],[-80.874313,39.664294],[-80.963291,39.57113],[-81.262504,39.386538],[-81.333354,39.362819],[-81.392417,39.364829],[-81.439647,39.392559],[-81.492722,39.373618],[-81.551631,39.308041],[-81.606464,39.274137],[-81.657209,39.271973],[-81.700594,39.229467],[-81.736663,39.14663],[-81.770665,39.098828],[-81.802602,39.086062],[-81.804954,39.04405],[-81.777685,38.972793],[-81.780124,38.946975],[-81.809337,38.950029],[-81.843757,38.934319],[-81.88244,38.894219],[-81.896678,38.893549],[-81.907368,38.900239],[-81.91853,38.952347],[-81.949797,38.989327],[-82.001092,39.011102],[-82.072273,38.962949],[-82.163328,38.844912],[-82.203527,38.768228],[-82.18764,38.715208],[-82.180071,38.637589],[-82.202494,38.605839],[-82.252317,38.594083],[-82.290868,38.552017],[-82.318147,38.479672],[-82.387064,38.43399],[-82.497543,38.414973],[-82.612778,38.448218]]}},{"type":"Feature","properties":{},"geometry":{"type":"LineString","coordinates":[[-88.041991,37.788851],[-88.095319,37.875566],[-88.091122,37.896649],[-88.059108,37.898363],[-88.042496,37.93665],[-88.044518,38.013291],[-88.026127,38.059587],[-87.996046,38.074419],[-87.990256,38.089305],[-88.005143,38.098402],[-88.006022,38.113278],[-87.958056,38.144292],[-87.948552,38.178009],[-87.97749,38.21444],[-87.980413,38.249189],[-87.957265,38.282214],[-87.921427,38.297507],[-87.872955,38.295024],[-87.827164,38.335564],[-87.784065,38.419104],[-87.735231,38.469905],[-87.680662,38.487988],[-87.635958,38.542612],[-87.583773,38.67937],[-87.529457,38.742289],[-87.51768,38.811821],[-87.530281,38.908897],[-87.568294,39.00718],[-87.631696,39.106705],[-87.647285,39.168745],[-87.614985,39.193289],[-87.602912,39.234147],[-87.611052,39.291353],[-87.579115,39.343977],[-87.532918,39.37486],[-87.521085,41.760761],[-87.221257,41.760728]]}},{"type":"Feature","properties":{},"geometry":{"type":"LineString","coordinates":[[-88.173267,34.999005],[-88.084772,34.933109],[-88.48619,31.890511],[-88.399585,30.370805]]}},{"type":"Feature","properties":{},"geometry":{"type":"LineString","coordinates":[[-85.623604,35.000862],[-88.203139,35.024197],[-88.173267,34.999005]]}},{"type":"Feature","properties":{},"geometry":{"type":"LineString","coordinates":[[-83.667521,36.60503],[-83.730385,36.586815],[-86.507586,36.66484],[-87.839151,36.643966],[-87.868715,36.675046],[-88.096297,36.693009],[-88.056713,36.59032],[-88.059108,36.499683],[-89.450329,36.500023]]}},{"type":"Feature","properties":{},"geometry":{"type":"LineString","coordinates":[[-81.65889,36.610579],[-81.905336,36.618544],[-81.952511,36.598021],[-83.667521,36.60503]]}},{"type":"Feature","properties":{},"geometry":{"type":"LineString","coordinates":[[-75.857428,36.550582],[-81.641631,36.595077],[-81.65889,36.610579]]}},{"type":"Feature","properties":{},"geometry":{"type":"LineString","coordinates":[[-85.007282,31.001673],[-84.886882,30.75926],[-84.883938,30.72094],[-82.23988,30.565681],[-82.238924,30.532612],[-82.212733,30.480746],[-82.194232,30.393437],[-82.162624,30.375716],[-82.112274,30.371355],[-82.061759,30.404599],[-82.029822,30.477702],[-82.021835,30.559869],[-82.04116,30.65322],[-82.038193,30.73197],[-82.012947,30.778069],[-81.983053,30.789494],[-81.957081,30.81429],[-81.935592,30.819509],[-81.880452,30.806336],[-81.673359,30.740243],[-81.503939,30.731432]]}},{"type":"Feature","properties":{},"geometry":{"type":"LineString","coordinates":[[-85.007282,31.001673],[-85.067443,31.117579],[-85.092601,31.295711],[-85.054885,31.572677],[-85.067047,31.635178],[-85.124824,31.77677],[-85.124132,31.880536],[-85.034627,32.147372],[-84.992977,32.201831],[-84.929696,32.246556],[-84.921533,32.285887],[-84.9685,32.319813],[-84.985968,32.360946],[-84.973905,32.409286],[-85.015038,32.526158],[-85.156531,32.804277],[-85.176317,32.898221],[-85.200971,32.956229],[-85.623604,35.000862]]}},{"type":"Feature","properties":{},"geometry":{"type":"LineString","coordinates":[[-83.114821,35.001477],[-83.1704,34.932911],[-83.316716,34.805657],[-83.355575,34.708318],[-83.166522,34.599597],[-83.052781,34.51086],[-82.975679,34.476396],[-82.896819,34.465806],[-82.847732,34.436911],[-82.818585,34.366017],[-82.589268,34.017377],[-82.351897,33.837728],[-82.256623,33.749233],[-82.208361,33.663584],[-82.005718,33.522893],[-81.936394,33.447285],[-81.932845,33.38987],[-81.908741,33.349254],[-81.864093,33.325436],[-81.821279,33.274096],[-81.780322,33.195292],[-81.69932,33.126759],[-81.57824,33.068575],[-81.489778,32.935663],[-81.433813,32.728032],[-81.37697,32.607468],[-81.290332,32.557239],[-81.171504,32.380139],[-81.132953,32.27467],[-81.135018,32.181858],[-81.074813,32.109699],[-80.872346,32.029565]]}},{"type":"Feature","properties":{},"geometry":{"type":"LineString","coordinates":[[-77.122053,38.943536],[-77.053048,38.915302],[-77.030361,38.889253],[-77.019737,38.806526]]}},{"type":"Feature","properties":{},"geometry":{"type":"LineString","coordinates":[[-77.726642,39.346438],[-77.668821,39.309535],[-77.53415,39.265612],[-77.478856,39.220864],[-77.502938,39.175282],[-77.506454,39.14262],[-77.480921,39.112957],[-77.301086,39.053378],[-77.1903,38.969047],[-77.122053,38.943536]]}},{"type":"Feature","properties":{},"geometry":{"type":"LineString","coordinates":[[-79.487981,39.210911],[-79.35977,39.285354],[-79.293556,39.311578],[-79.075345,39.475989],[-79.046748,39.476791],[-78.971481,39.453643],[-78.814794,39.570087],[-78.796172,39.612626],[-78.77777,39.626622],[-78.746459,39.613702],[-78.753402,39.589522],[-78.741669,39.577898],[-78.677673,39.54952],[-78.574962,39.532854],[-78.495542,39.533348],[-78.460265,39.556134],[-78.442698,39.601464],[-78.406761,39.627864],[-78.325364,39.639213],[-78.181135,39.68574],[-78.097782,39.677885],[-78.027195,39.631226],[-77.955707,39.608803],[-77.883252,39.610714],[-77.855423,39.599706],[-77.872167,39.575778],[-77.853072,39.548334],[-77.798141,39.517275],[-77.779585,39.488337],[-77.797438,39.461465],[-77.791703,39.441777],[-77.762358,39.429242],[-77.744835,39.400106],[-77.739045,39.354337],[-77.726642,39.346438]]}},{"type":"Feature","properties":{},"geometry":{"type":"LineString","coordinates":[[-79.521346,51.544712],[-79.512975,47.556422],[-79.559293,47.483045],[-79.546714,47.407448],[-79.479225,47.318865],[-79.441937,47.227657],[-79.434917,47.133811],[-79.364945,47.02196],[-79.165554,46.827172],[-79.01458,46.606512],[-78.903168,46.486464],[-78.781,46.393443],[-78.460451,46.306892],[-77.682652,46.186669],[-77.371344,46.062853],[-77.292748,45.976775],[-77.266798,45.929391],[-77.233235,45.903584],[-77.100685,45.832657],[-77.030844,45.807465],[-76.940932,45.800972],[-76.92553,45.819682],[-76.912895,45.8758],[-76.890208,45.890269],[-76.823708,45.879678],[-76.753813,45.79783],[-76.666582,45.642593],[-76.553126,45.542079],[-76.413446,45.496343],[-76.269942,45.483939],[-76.122638,45.504868],[-76.000623,45.483632],[-75.903966,45.42023],[-75.626132,45.450761],[-75.167135,45.575302],[-74.864187,45.642176],[-74.717212,45.651371],[-74.577224,45.6322],[-74.396565,45.56771],[-74.478061,45.317903],[-74.340446,45.214445]]}},{"type":"Feature","properties":{},"geometry":{"type":"LineString","coordinates":[[108.799001,-7.664727],[108.733601,-7.6046],[108.741559,-7.536542],[108.704662,-7.39097],[108.546894,-7.27878],[108.595418,-7.142096],[108.695464,-7.139822],[108.788998,-7.061326],[108.800677,-6.93477],[108.89512,-6.814155]]}},{"type":"Feature","properties":{},"geometry":{"type":"LineString","coordinates":[[106.401052,-7.007259],[106.450795,-6.836223],[106.506088,-6.783462],[106.426558,-6.6968],[106.405268,-6.524098],[106.43369,-6.438987],[106.420771,-6.370412],[106.560297,-6.355219],[106.630887,-6.384365],[106.739149,-6.386483],[106.76292,-6.301424]]}},{"type":"Feature","properties":{},"geometry":{"type":"LineString","coordinates":[[121.598036,-2.972841],[121.475252,-3.019764],[121.277642,-2.878945],[121.16354,-2.873468],[121.067655,-2.917692]]}},{"type":"Feature","properties":{},"geometry":{"type":"LineString","coordinates":[[110.84356,-8.200843],[110.798746,-8.121674],[110.786602,-7.873628],[110.753323,-7.832597],[110.578656,-7.820969],[110.50662,-7.783091],[110.4413,-7.568943],[110.301309,-7.669144],[110.136513,-7.676792],[110.116669,-7.761593],[110.04274,-7.889101]]}},{"type":"Feature","properties":{},"geometry":{"type":"LineString","coordinates":[[119.46748,-3.512988],[119.452947,-3.280936],[119.411916,-3.214687],[119.639189,-3.120946],[119.543226,-2.906902],[119.560434,-2.746499],[119.661255,-2.758229],[119.78564,-2.695029],[119.738976,-2.565269],[119.707092,-2.353913],[119.623582,-2.293555],[119.646268,-2.176404],[119.753497,-2.081785],[119.825017,-2.046231],[119.87349,-1.955384]]}},{"type":"Feature","properties":{},"geometry":{"type":"LineString","coordinates":[[119.87349,-1.955384],[120.048053,-1.861488],[120.15678,-1.860403],[120.292379,-1.900194],[120.447615,-1.866242],[120.553241,-2.025044],[120.624968,-2.104212],[120.804182,-2.238571],[121.349782,-2.348487],[121.448897,-2.388484],[121.638033,-2.557931],[121.742006,-2.610073],[121.787378,-2.670121],[121.772495,-2.800914],[121.598036,-2.972841]]}},{"type":"Feature","properties":{},"geometry":{"type":"LineString","coordinates":[[110.94435,-8.226372],[110.965196,-8.116869],[111.099245,-8.008503],[111.228022,-7.93812],[111.307914,-7.837816],[111.264609,-7.731724],[111.190609,-7.707436],[111.217481,-7.613333],[111.184976,-7.529101],[111.197378,-7.308598],[111.220271,-7.251392],[111.444288,-7.311233],[111.459843,-7.273768],[111.608309,-7.153982],[111.598491,-6.960763],[111.629342,-6.800101],[111.672699,-6.733657]]}},{"type":"Feature","properties":{},"geometry":{"type":"LineString","coordinates":[[103.592472,-4.927279],[103.765274,-4.804668]]}},{"type":"Feature","properties":{},"geometry":{"type":"LineString","coordinates":[[101.026596,-2.479951],[101.170962,-2.367142],[101.335603,-2.296965]]}},{"type":"Feature","properties":{},"geometry":{"type":"LineString","coordinates":[[105.827973,-4.157973],[105.709186,-4.149979],[105.513229,-3.868446],[105.309934,-3.755584],[105.266061,-3.886119],[105.128963,-3.956347],[105.111497,-4.059959],[105.008867,-4.169203],[104.839575,-4.220672],[104.674314,-4.296843],[104.527243,-4.320046],[104.397225,-4.405105],[104.309065,-4.440245],[104.292735,-4.494712],[104.308755,-4.627831],[104.264933,-4.707826],[104.336505,-4.814279],[104.297851,-4.892466],[104.210363,-4.893189],[104.081069,-4.946726],[103.889452,-4.9336],[103.854726,-4.854225],[103.765274,-4.804668]]}},{"type":"Feature","properties":{},"geometry":{"type":"LineString","coordinates":[[103.765274,-4.804668],[103.722537,-4.757487],[103.693909,-4.639303],[103.621768,-4.505254],[103.615774,-4.418025],[103.391498,-4.334774],[103.185929,-4.242531],[103.141643,-4.046781],[103.107381,-4.019858],[102.981032,-4.035361],[102.908427,-3.991074],[102.845175,-4.000479],[102.768487,-3.96136],[102.629891,-3.813669],[102.701825,-3.791086],[102.897213,-3.630837],[102.993073,-3.58407],[103.017309,-3.485368],[102.974883,-3.395606],[102.870186,-3.375918],[102.765955,-3.278973],[102.631338,-3.373024],[102.562608,-3.344085],[102.461684,-3.250447],[102.489331,-3.151229],[102.430782,-3.087925],[102.241129,-3.058831],[102.223818,-2.95429],[102.066825,-2.782362]]}},{"type":"Feature","properties":{},"geometry":{"type":"LineString","coordinates":[[102.066825,-2.782362],[101.962645,-2.735027],[101.900426,-2.740143],[101.736716,-2.636273],[101.56422,-2.450238],[101.517142,-2.305234],[101.435752,-2.236246],[101.335603,-2.296965]]}},{"type":"Feature","properties":{},"geometry":{"type":"LineString","coordinates":[[101.335603,-2.296965],[101.259742,-2.081475],[101.142282,-1.919986],[101.113911,-1.704909],[101.226049,-1.728421],[101.475698,-1.702118],[101.519364,-1.639848],[101.675324,-1.499856],[101.678114,-1.288965],[101.79449,-1.23889],[101.840999,-1.166233],[101.782708,-1.131817],[101.769788,-1.038231]]}},{"type":"Feature","properties":{},"geometry":{"type":"LineString","coordinates":[[123.074543,0.941424],[123.205173,0.836797],[123.24703,0.732927],[123.325372,0.664249],[123.439422,0.611022],[123.481021,0.556917],[123.499832,0.429793],[123.457047,0.305854]]}},{"type":"Feature","properties":{},"geometry":{"type":"LineString","coordinates":[[104.531586,-1.734063],[104.428283,-1.69385],[104.375934,-1.713849],[104.321519,-1.804334],[104.125614,-1.830637],[103.957872,-1.790588],[103.886352,-1.794774],[103.535004,-1.967942],[103.523687,-2.224515],[103.459866,-2.238261],[103.463225,-2.351536],[103.41899,-2.393807],[103.303648,-2.284563],[103.271919,-2.209064],[103.215592,-2.185964],[103.17022,-2.286113],[103.204533,-2.361303],[103.122884,-2.397993],[102.862022,-2.353913],[102.863572,-2.461762],[102.791742,-2.567853],[102.618677,-2.671516],[102.596405,-2.709808],[102.486851,-2.729911],[102.39776,-2.709912],[102.260198,-2.639528],[102.233119,-2.684384],[102.066825,-2.782362]]}},{"type":"Feature","properties":{},"geometry":{"type":"LineString","coordinates":[[101.769788,-1.038231],[101.673774,-0.967486],[101.525256,-0.931932],[101.433685,-0.847131],[101.330849,-0.787238],[101.235971,-0.702592],[101.040324,-0.474493],[101.00012,-0.401319],[100.855839,-0.322254],[100.790003,-0.205724],[100.749024,-0.063975],[100.845607,-0.030334],[100.847157,0.185984],[100.509814,0.443901],[100.368685,0.411293],[100.265384,0.450464],[100.162961,0.648385],[100.206783,0.710706],[100.1734,0.757577]]}},{"type":"Feature","properties":{},"geometry":{"type":"LineString","coordinates":[[100.1734,0.757577],[100.209884,0.866356],[100.209574,1.053528],[100.225387,1.146029],[100.147665,1.224732],[100.130302,1.299973],[100.070977,1.358729],[100.104774,1.415211],[100.35034,1.524817],[100.440877,1.598714],[100.435296,1.666565],[100.375558,1.814463],[100.303573,1.881177],[100.319128,2.045664],[100.312616,2.177283],[100.278717,2.354534],[100.31365,2.554551]]}},{"type":"Feature","properties":{},"geometry":{"type":"LineString","coordinates":[[122.197342,1.027665],[122.045657,0.943767],[121.993102,0.935292],[121.840398,0.970432],[121.507963,0.846925],[121.378462,0.860981],[121.30317,0.8261],[121.23537,0.724607],[121.160439,0.686057],[121.256713,0.586683],[121.333762,0.575624],[121.3334,0.482935]]}},{"type":"Feature","properties":{},"geometry":{"type":"LineString","coordinates":[[103.524679,-0.739341],[103.100147,-0.772201],[102.917315,-0.763416],[102.804351,-0.792975],[102.682188,-0.904492],[102.541214,-1.084946],[102.451814,-1.068203],[102.356213,-1.010016],[102.26056,-0.880359],[102.188884,-0.855658],[102.012616,-0.880411],[101.93505,-0.927282],[101.881823,-0.99999],[101.769788,-1.038231]]}},{"type":"Feature","properties":{},"geometry":{"type":"LineString","coordinates":[[121.598036,-2.972841],[121.781435,-2.985502],[122.057956,-3.092627],[122.207197,-3.111489],[122.348944,-3.246376]]}},{"type":"Feature","properties":{},"geometry":{"type":"LineString","coordinates":[[119.87349,-1.955384],[119.822743,-1.871823],[119.846411,-1.791725],[119.822433,-1.729041],[119.724661,-1.612511],[119.692519,-1.461254],[119.641669,-1.393713],[119.494495,-1.329324],[119.526534,-1.223594],[119.601775,-1.15073],[119.572113,-1.052028],[119.56622,-0.833692]]}},{"type":"Feature","properties":{},"geometry":{"type":"LineString","coordinates":[[106.76292,-6.301424],[106.923892,-6.381522],[106.984974,-6.235433],[106.988821,-6.02701]]}},{"type":"Feature","properties":{},"geometry":{"type":"LineString","coordinates":[[106.76292,-6.301424],[106.701994,-6.210112],[106.684114,-6.101901],[106.731049,-6.058852]]}},{"type":"Feature","properties":{},"geometry":{"type":"LineString","coordinates":[[115.677518,-1.425907],[115.68005,-1.360899],[115.426629,-1.434486],[115.404253,-1.474432],[115.338263,-1.76537],[115.358365,-1.903863],[115.30798,-1.991919],[115.330149,-2.037085],[115.130937,-2.207617],[114.904801,-2.262549],[114.878962,-2.326318],[114.908108,-2.418663],[114.82217,-2.561962],[114.785428,-2.688776],[114.675047,-2.759418],[114.631226,-2.822256],[114.504463,-2.880961],[114.471132,-3.003951],[114.310683,-3.433914]]}},{"type":"Feature","properties":{},"geometry":{"type":"LineString","coordinates":[[99.151165,0.252457],[99.34234,0.473615],[99.584495,0.562757],[99.685368,0.500693],[99.814094,0.468189],[99.908197,0.503587],[99.914656,0.568596],[99.818073,0.708691],[99.794198,0.780056],[99.710483,0.848889],[99.826393,0.868216],[100.1734,0.757577]]}},{"type":"Feature","properties":{},"geometry":{"type":"LineString","coordinates":[[98.101334,2.188621],[98.127633,2.32699],[98.062573,2.444347],[98.025314,2.576122],[98.069394,2.676995],[98.057043,2.812128],[97.922788,2.90928],[97.895606,3.082603],[97.936379,3.140635],[97.86398,3.257424],[97.989554,3.330391],[97.906768,3.433021],[97.914158,3.483767],[97.843827,3.579885],[97.783882,3.744785],[97.893333,3.848189],[97.890232,3.915162],[98.001026,3.980067],[98.062728,4.24031],[98.188405,4.294777],[98.267589,4.287909]]}},{"type":"Feature","properties":{},"geometry":{"type":"LineString","coordinates":[[134.873493,-4.254611],[135.265108,-3.759977],[134.258348,-3.399482],[134.254627,-3.307705],[134.332142,-3.189934],[134.450688,-3.0779],[134.445365,-3.023898],[134.670014,-2.83766]]}},{"type":"Feature","properties":{},"geometry":{"type":"LineString","coordinates":[[113.776394,0.558571],[113.646686,0.410053],[113.622915,0.310937],[113.531551,0.261431],[113.416003,0.275229],[113.324535,0.245205],[113.45321,0.065888],[113.478531,-0.047542],[113.429335,-0.190427],[113.326241,-0.251664],[113.249191,-0.361063],[113.300816,-0.422765],[113.256426,-0.551387],[113.161134,-0.469893],[113.084033,-0.518469],[113.004245,-0.518728],[112.755061,-0.63593],[112.578018,-0.704453],[112.497299,-0.702127],[112.379994,-0.754579],[112.118511,-0.735355],[112.058669,-0.795765],[111.968649,-0.822844],[111.651408,-1.015493],[111.58738,-1.102],[111.577355,-1.186749],[111.416073,-1.268759],[111.327138,-1.373301],[111.24213,-1.420585],[111.133971,-1.530449],[111.011602,-1.526108],[110.920341,-1.613235],[111.017441,-1.660312],[111.025244,-1.867018],[110.994755,-1.985253],[111.012325,-2.127363],[111.137692,-2.404814],[111.137589,-2.733011],[111.067102,-2.764689],[110.899205,-2.908763]]}},{"type":"Feature","properties":{},"geometry":{"type":"LineString","coordinates":[[113.776394,0.558571],[113.917677,0.736441],[113.948115,0.862222],[113.86259,0.902322],[113.864451,0.976427],[114.018033,1.078642],[114.192079,1.214448],[114.210598,1.462906]]}},{"type":"Feature","properties":{},"geometry":{"type":"LineString","coordinates":[[116.57289,-2.362976],[116.390498,-2.314432],[116.042716,-2.288232],[115.99445,-2.271024],[115.874044,-2.350657],[115.814099,-2.183639],[115.828775,-2.047162],[115.748935,-2.000704],[115.741235,-1.784232],[115.689042,-1.635507],[115.606877,-1.46668],[115.677518,-1.425907]]}},{"type":"Feature","properties":{},"geometry":{"type":"LineString","coordinates":[[115.677518,-1.425907],[115.720151,-1.426321],[115.802007,-1.294443],[115.805107,-1.085256],[115.739685,-1.103808],[115.628684,-0.978028],[115.517838,-0.937824],[115.460012,-0.885992],[115.415157,-0.773906],[115.381257,-0.582031],[115.329891,-0.511028],[115.274184,-0.31104],[115.277233,-0.220141],[115.347358,0.002274],[115.275424,0.031368],[115.187367,0.00522],[115.085772,-0.117512],[115.002572,-0.177663],[114.967329,-0.097513],[115.017662,0.057671],[114.953066,0.284169],[114.967949,0.364216],[115.075953,0.533043],[115.057246,0.636861],[114.976476,0.735201],[114.735405,0.672569],[114.663058,0.621306],[114.377546,0.588647],[114.183914,0.650452],[114.036327,0.647041],[113.969871,0.603633],[113.776394,0.558571]]}}]}